[{"OBJECT_NAME":"STARLINK-32244","OBJECT_ID":"2024-141P","EPOCH":"2026-03-16T15:38:50.164800","MEAN_MOTION":15.30198894,"ECCENTRICITY":0.0001222,"INCLINATION":53.1602,"RA_OF_ASC_NODE":210.4572,"ARG_OF_PERICENTER":88.6237,"MEAN_ANOMALY":271.4904,"EPHEMERIS_TYPE":0,"CLASSIFICATION_TYPE":"U","NORAD_CAT_ID":60411,"ELEMENT_SET_NO":999,"REV_AT_EPOCH":9064,"BSTAR":4.9295e-5,"MEAN_MOTION_DOT":1.101e-5,"MEAN_MOTION_DDOT":0},{"OBJECT_NAME":"STARLINK-32186","OBJECT_ID":"2024-141Q","EPOCH":"2026-03-15T16:03:29.618784","MEAN_MOTION":15.30197398,"ECCENTRICITY":0.00021441,"INCLINATION":53.1611,"RA_OF_ASC_NODE":214.989,"ARG_OF_PERICENTER":102.1087,"MEAN_ANOMALY":258.0154,"EPHEMERIS_TYPE":0,"CLASSIFICATION_TYPE":"U","NORAD_CAT_ID":60412,"ELEMENT_SET_NO":999,"REV_AT_EPOCH":9043,"BSTAR":1.3513834e-5,"MEAN_MOTION_DOT":4.0e-7,"MEAN_MOTION_DDOT":0},{"OBJECT_NAME":"STARLINK-32178","OBJECT_ID":"2024-141R","EPOCH":"2026-03-16T15:20:35.727360","MEAN_MOTION":15.3020102,"ECCENTRICITY":0.0001415,"INCLINATION":53.1614,"RA_OF_ASC_NODE":210.375,"ARG_OF_PERICENTER":104.3907,"MEAN_ANOMALY":255.7251,"EPHEMERIS_TYPE":0,"CLASSIFICATION_TYPE":"U","NORAD_CAT_ID":60413,"ELEMENT_SET_NO":999,"REV_AT_EPOCH":9058,"BSTAR":4.3701e-5,"MEAN_MOTION_DOT":9.35e-6,"MEAN_MOTION_DDOT":0},{"OBJECT_NAME":"STARLINK-32234","OBJECT_ID":"2024-141S","EPOCH":"2026-03-16T15:29:42.414720","MEAN_MOTION":15.30200375,"ECCENTRICITY":0.0001023,"INCLINATION":53.1602,"RA_OF_ASC_NODE":210.4158,"ARG_OF_PERICENTER":66.1969,"MEAN_ANOMALY":293.9139,"EPHEMERIS_TYPE":0,"CLASSIFICATION_TYPE":"U","NORAD_CAT_ID":60414,"ELEMENT_SET_NO":999,"REV_AT_EPOCH":9064,"BSTAR":6.2674e-5,"MEAN_MOTION_DOT":1.498e-5,"MEAN_MOTION_DDOT":0},{"OBJECT_NAME":"STARLINK-32265","OBJECT_ID":"2024-141T","EPOCH":"2026-03-16T15:25:09.845184","MEAN_MOTION":15.30193431,"ECCENTRICITY":0.0001233,"INCLINATION":53.1599,"RA_OF_ASC_NODE":210.3959,"ARG_OF_PERICENTER":86.4289,"MEAN_ANOMALY":273.6853,"EPHEMERIS_TYPE":0,"CLASSIFICATION_TYPE":"U","NORAD_CAT_ID":60415,"ELEMENT_SET_NO":999,"REV_AT_EPOCH":9064,"BSTAR":3.8451e-5,"MEAN_MOTION_DOT":7.8e-6,"MEAN_MOTION_DDOT":0},{"OBJECT_NAME":"STARLINK-32197","OBJECT_ID":"2024-141U","EPOCH":"2026-03-16T17:08:27.778560","MEAN_MOTION":15.30173933,"ECCENTRICITY":0.0001368,"INCLINATION":53.1601,"RA_OF_ASC_NODE":200.1673,"ARG_OF_PERICENTER":108.6881,"MEAN_ANOMALY":251.4268,"EPHEMERIS_TYPE":0,"CLASSIFICATION_TYPE":"U","NORAD_CAT_ID":60416,"ELEMENT_SET_NO":999,"REV_AT_EPOCH":9073,"BSTAR":0.0001292,"MEAN_MOTION_DOT":3.466e-5,"MEAN_MOTION_DDOT":0},{"OBJECT_NAME":"STARLINK-32255","OBJECT_ID":"2024-141V","EPOCH":"2026-03-16T18:19:35.764032","MEAN_MOTION":15.30192047,"ECCENTRICITY":0.0001175,"INCLINATION":53.1588,"RA_OF_ASC_NODE":209.7275,"ARG_OF_PERICENTER":91.4464,"MEAN_ANOMALY":268.6672,"EPHEMERIS_TYPE":0,"CLASSIFICATION_TYPE":"U","NORAD_CAT_ID":60417,"ELEMENT_SET_NO":999,"REV_AT_EPOCH":9066,"BSTAR":1.2544e-5,"MEAN_MOTION_DOT":1.2e-7,"MEAN_MOTION_DDOT":0},{"OBJECT_NAME":"STARLINK-32236","OBJECT_ID":"2024-141W","EPOCH":"2026-03-16T18:13:30.817344","MEAN_MOTION":15.30193501,"ECCENTRICITY":0.0001136,"INCLINATION":53.1592,"RA_OF_ASC_NODE":209.7007,"ARG_OF_PERICENTER":94.9902,"MEAN_ANOMALY":265.1229,"EPHEMERIS_TYPE":0,"CLASSIFICATION_TYPE":"U","NORAD_CAT_ID":60418,"ELEMENT_SET_NO":999,"REV_AT_EPOCH":9066,"BSTAR":9.8746e-7,"MEAN_MOTION_DOT":-3.3e-6,"MEAN_MOTION_DDOT":0},{"OBJECT_NAME":"STARLINK-32250","OBJECT_ID":"2024-144A","EPOCH":"2026-03-16T16:00:01.713600","MEAN_MOTION":15.30215007,"ECCENTRICITY":0.0001111,"INCLINATION":53.1604,"RA_OF_ASC_NODE":184.9921,"ARG_OF_PERICENTER":80.3857,"MEAN_ANOMALY":279.7269,"EPHEMERIS_TYPE":0,"CLASSIFICATION_TYPE":"U","NORAD_CAT_ID":60425,"ELEMENT_SET_NO":999,"REV_AT_EPOCH":8947,"BSTAR":9.2933e-5,"MEAN_MOTION_DOT":2.395e-5,"MEAN_MOTION_DDOT":0},{"OBJECT_NAME":"STARLINK-32226","OBJECT_ID":"2024-144B","EPOCH":"2026-03-16T14:24:28.161216","MEAN_MOTION":15.30192568,"ECCENTRICITY":0.0001194,"INCLINATION":53.1592,"RA_OF_ASC_NODE":185.2875,"ARG_OF_PERICENTER":82.1702,"MEAN_ANOMALY":277.9434,"EPHEMERIS_TYPE":0,"CLASSIFICATION_TYPE":"U","NORAD_CAT_ID":60426,"ELEMENT_SET_NO":999,"REV_AT_EPOCH":9036,"BSTAR":5.2764e-5,"MEAN_MOTION_DOT":1.204e-5,"MEAN_MOTION_DDOT":0},{"OBJECT_NAME":"STARLINK-32254","OBJECT_ID":"2024-144C","EPOCH":"2026-03-16T15:40:17.991264","MEAN_MOTION":15.30193032,"ECCENTRICITY":9.77e-5,"INCLINATION":53.1598,"RA_OF_ASC_NODE":184.9041,"ARG_OF_PERICENTER":90.6969,"MEAN_ANOMALY":269.4143,"EPHEMERIS_TYPE":0,"CLASSIFICATION_TYPE":"U","NORAD_CAT_ID":60427,"ELEMENT_SET_NO":999,"REV_AT_EPOCH":9041,"BSTAR":-2.2129e-5,"MEAN_MOTION_DOT":-1.014e-5,"MEAN_MOTION_DDOT":0},{"OBJECT_NAME":"STARLINK-32193","OBJECT_ID":"2024-144D","EPOCH":"2026-03-16T17:29:32.076672","MEAN_MOTION":15.30197032,"ECCENTRICITY":0.0001136,"INCLINATION":53.1613,"RA_OF_ASC_NODE":184.6683,"ARG_OF_PERICENTER":70.8039,"MEAN_ANOMALY":289.3084,"EPHEMERIS_TYPE":0,"CLASSIFICATION_TYPE":"U","NORAD_CAT_ID":60428,"ELEMENT_SET_NO":999,"REV_AT_EPOCH":9042,"BSTAR":6.2093e-5,"MEAN_MOTION_DOT":1.48e-5,"MEAN_MOTION_DDOT":0},{"OBJECT_NAME":"STARLINK-32242","OBJECT_ID":"2024-144E","EPOCH":"2026-03-16T17:18:53.936640","MEAN_MOTION":15.30195388,"ECCENTRICITY":0.0001037,"INCLINATION":53.162,"RA_OF_ASC_NODE":184.6211,"ARG_OF_PERICENTER":67.7468,"MEAN_ANOMALY":292.3643,"EPHEMERIS_TYPE":0,"CLASSIFICATION_TYPE":"U","NORAD_CAT_ID":60429,"ELEMENT_SET_NO":999,"REV_AT_EPOCH":9042,"BSTAR":0.00014416,"MEAN_MOTION_DOT":3.912e-5,"MEAN_MOTION_DDOT":0},{"OBJECT_NAME":"STARLINK-32196","OBJECT_ID":"2024-144F","EPOCH":"2026-03-16T17:09:46.589184","MEAN_MOTION":15.30196079,"ECCENTRICITY":0.0001148,"INCLINATION":53.1607,"RA_OF_ASC_NODE":184.5801,"ARG_OF_PERICENTER":76.2901,"MEAN_ANOMALY":283.8227,"EPHEMERIS_TYPE":0,"CLASSIFICATION_TYPE":"U","NORAD_CAT_ID":60430,"ELEMENT_SET_NO":999,"REV_AT_EPOCH":9038,"BSTAR":7.5936e-5,"MEAN_MOTION_DOT":1.89e-5,"MEAN_MOTION_DDOT":0},{"OBJECT_NAME":"STARLINK-32232","OBJECT_ID":"2024-144G","EPOCH":"2026-03-16T14:16:52.178304","MEAN_MOTION":15.30191458,"ECCENTRICITY":0.000122,"INCLINATION":53.162,"RA_OF_ASC_NODE":185.2548,"ARG_OF_PERICENTER":78.2981,"MEAN_ANOMALY":281.8157,"EPHEMERIS_TYPE":0,"CLASSIFICATION_TYPE":"U","NORAD_CAT_ID":60431,"ELEMENT_SET_NO":999,"REV_AT_EPOCH":9036,"BSTAR":6.9854e-5,"MEAN_MOTION_DOT":1.71e-5,"MEAN_MOTION_DDOT":0},{"OBJECT_NAME":"STARLINK-32246","OBJECT_ID":"2024-144H","EPOCH":"2026-03-15T17:37:30.568512","MEAN_MOTION":15.30164035,"ECCENTRICITY":0.00011658,"INCLINATION":53.1591,"RA_OF_ASC_NODE":189.1229,"ARG_OF_PERICENTER":76.6342,"MEAN_ANOMALY":283.4789,"EPHEMERIS_TYPE":0,"CLASSIFICATION_TYPE":"U","NORAD_CAT_ID":60432,"ELEMENT_SET_NO":999,"REV_AT_EPOCH":9023,"BSTAR":-0.00010740161,"MEAN_MOTION_DOT":-3.535e-5,"MEAN_MOTION_DDOT":0},{"OBJECT_NAME":"STARLINK-32183","OBJECT_ID":"2024-144J","EPOCH":"2026-03-16T17:05:12.883488","MEAN_MOTION":15.30206658,"ECCENTRICITY":9.82e-5,"INCLINATION":53.1587,"RA_OF_ASC_NODE":184.5612,"ARG_OF_PERICENTER":86.831,"MEAN_ANOMALY":273.2803,"EPHEMERIS_TYPE":0,"CLASSIFICATION_TYPE":"U","NORAD_CAT_ID":60433,"ELEMENT_SET_NO":999,"REV_AT_EPOCH":9038,"BSTAR":3.3292e-5,"MEAN_MOTION_DOT":6.27e-6,"MEAN_MOTION_DDOT":0}]
