STARLINK-32244          
1 60411U 24141P   26075.65196950  .00001101  00000+0  49295-4 0  9990
2 60411  53.1602 210.4572 0001222  88.6237 271.4904 15.30198894 90647
STARLINK-32186          
1 60412U 24141Q   26074.66909281  .00000040  00000+0  13514-4 0  9996
2 60412  53.1611 214.9890 0002144 102.1087 258.0154 15.30197398 90432
STARLINK-32178          
1 60413U 24141R   26075.63930240  .00000935  00000+0  43701-4 0  9998
2 60413  53.1614 210.3750 0001415 104.3907 255.7251 15.30201020 90582
STARLINK-32234          
1 60414U 24141S   26075.64562980  .00001498  00000+0  62674-4 0  9997
2 60414  53.1602 210.4158 0001023  66.1969 293.9139 15.30200375 90649
STARLINK-32265          
1 60415U 24141T   26075.64247506  .00000780  00000+0  38451-4 0  9991
2 60415  53.1599 210.3959 0001233  86.4289 273.6853 15.30193431 90648
STARLINK-32197          
1 60416U 24141U   26075.71421040  .00003466  00000+0  12920-3 0  9993
2 60416  53.1601 200.1673 0001368 108.6881 251.4268 15.30173933 90736
STARLINK-32255          
1 60417U 24141V   26075.76360838  .00000012  00000+0  12544-4 0  9993
2 60417  53.1588 209.7275 0001175  91.4464 268.6672 15.30192047 90664
STARLINK-32236          
1 60418U 24141W   26075.75938446 -.00000330  00000+0  98746-6 0  9993
2 60418  53.1592 209.7007 0001136  94.9902 265.1229 15.30193501 90661
STARLINK-32250          
1 60425U 24144A   26075.66668650  .00002395  00000+0  92933-4 0  9993
2 60425  53.1604 184.9921 0001111  80.3857 279.7269 15.30215007 89471
STARLINK-32226          
1 60426U 24144B   26075.60032594  .00001204  00000+0  52764-4 0  9996
2 60426  53.1592 185.2875 0001194  82.1702 277.9434 15.30192568 90360
STARLINK-32254          
1 60427U 24144C   26075.65298601 -.00001014  00000+0 -22129-4 0  9998
2 60427  53.1598 184.9041 0000977  90.6969 269.4143 15.30193032 90411
STARLINK-32193          
1 60428U 24144D   26075.72884348  .00001480  00000+0  62093-4 0  9995
2 60428  53.1613 184.6683 0001136  70.8039 289.3084 15.30197032 90425
STARLINK-32242          
1 60429U 24144E   26075.72145760  .00003912  00000+0  14416-3 0  9991
2 60429  53.1620 184.6211 0001037  67.7468 292.3643 15.30195388 90429
STARLINK-32196          
1 60430U 24144F   26075.71512256  .00001890  00000+0  75936-4 0  9998
2 60430  53.1607 184.5801 0001148  76.2901 283.8227 15.30196079 90386
STARLINK-32232          
1 60431U 24144G   26075.59504836  .00001710  00000+0  69854-4 0  9993
2 60431  53.1620 185.2548 0001220  78.2981 281.8157 15.30191458 90363
STARLINK-32246          
1 60432U 24144H   26074.73438158 -.00003535  00000+0 -10740-3 0  9990
2 60432  53.1591 189.1229 0001165  76.6342 283.4789 15.30164035 90237
STARLINK-32183          
1 60433U 24144J   26075.71195467  .00000627  00000+0  33292-4 0  9998
2 60433  53.1587 184.5612 0000982  86.8310 273.2803 15.30206658 90380
